{"epoch":1784902576,"count":18312,"objects":[{"id":"28054","name":"DMSP 5D-3 F16 (USA 172)","type":"PAYLOAD","l1":"1 28054U 03048A   26205.30104933 -.00000003  00000-0  22224-4 0  9992","l2":"2 28054  98.9888 229.3735 0007874  48.6838  11.4348 14.14485061174732"},{"id":"28912","name":"METEOSAT 9 (MSG 2)","type":"PAYLOAD","l1":"1 28912U 05049B   26205.13031078  .00000121  00000-0  00000-0 0  9992","l2":"2 28912   9.4424  53.7968 0002487   1.9946 338.7144  1.00277159  7363"},{"id":"29522","name":"DMSP 5D-3 F17 (USA 191)","type":"PAYLOAD","l1":"1 29522U 06050A   26205.29306252  .00000054  00000-0  50283-4 0  9996","l2":"2 29522  98.7393 211.1059 0009242 315.3298  44.7131 14.14996974 17673"},{"id":"32958","name":"FENGYUN 3A","type":"PAYLOAD","l1":"1 32958U 08026A   26205.26253373  .00000059  00000-0  48515-4 0  9990","l2":"2 32958  98.6887 145.4036 0009277  27.9145 332.2527 14.19578064940665"},{"id":"35491","name":"EWS-G3","type":"PAYLOAD","l1":"1 35491U 09033A   26205.27753801 -.00000354  00000-0  00000-0 0  9998","l2":"2 35491   1.7824  82.5821 0002282  40.1942  38.4642  1.00094104  6963"},{"id":"35951","name":"DMSP 5D-3 F18 (USA 210)","type":"PAYLOAD","l1":"1 35951U 09057A   26205.26672935  .00000248  00000-0  15113-3 0  9997","l2":"2 35951  98.9065 185.9603 0011726 140.7618 219.4407 14.14916225864839"},{"id":"36411","name":"EWS-G2","type":"PAYLOAD","l1":"1 36411U 10008A   26205.19628041  .00000026  00000-0  00000-0 0  9998","l2":"2 36411   1.3769  82.3590 0005677  52.9072 300.5568  1.00272507 60007"},{"id":"36744","name":"COMS 1","type":"PAYLOAD","l1":"1 36744U 10032A   26205.29863258 -.00000117  00000-0  00000-0 0  9998","l2":"2 36744   4.8975  74.9072 0011538  15.5646 244.9016  0.99165725 51458"},{"id":"37214","name":"FENGYUN 3B","type":"PAYLOAD","l1":"1 37214U 10059A   26205.30340341 -.00000004  00000-0  21064-4 0  9997","l2":"2 37214  98.9605 251.4712 0023227  82.1596  49.5765 14.14847711812673"},{"id":"37849","name":"NPP","type":"PAYLOAD","l1":"1 37849U 11061A   26205.27515446  .00000048  00000-0  43604-4 0  9992","l2":"2 37849  98.7956 145.8994 0001229 177.7147 182.4034 14.19524096763701"},{"id":"38552","name":"METEOSAT 10 (MSG 3)","type":"PAYLOAD","l1":"1 38552U 12035B   26205.25387789 -.00000005  00000-0  00000-0 0  9994","l2":"2 38552   4.7567  60.8330 0001510  21.6263 310.9704  1.00273570 51220"},{"id":"38771","name":"METOP-B","type":"PAYLOAD","l1":"1 38771U 12049A   26205.28557236  .00000081  00000-0  56747-4 0  9997","l2":"2 38771  98.6484 256.0405 0001478 210.5600 149.5492 14.21448305718533"},{"id":"39216","name":"INSAT 3D","type":"PAYLOAD","l1":"1 39216U 13038B   26205.27953134 -.00000336  00000-0  00000-0 0  9998","l2":"2 39216   2.0188  82.0722 0001187  44.7701  45.2994  1.00272277 47454"},{"id":"39260","name":"FENGYUN 3C","type":"PAYLOAD","l1":"1 39260U 13052A   26205.28865127  .00000073  00000-0  58241-4 0  9999","l2":"2 39260  98.5015 177.4653 0013433 277.5978  82.3671 14.15762432663818"},{"id":"40069","name":"METEOR M2","type":"PAYLOAD","l1":"1 40069U 14037A   26205.31140189  .00000273  00000-0  14422-3 0  9994","l2":"2 40069  98.5142 179.7400 0004666 295.9919  64.0778 14.21472194624597"},{"id":"40267","name":"HIMAWARI 8","type":"PAYLOAD","l1":"1 40267U 14060A   26205.28169802 -.00000271  00000-0  00000-0 0  9992","l2":"2 40267   0.0359 275.9362 0001427 240.8296  27.2876  1.00270360 43139"},{"id":"40367","name":"FENGYUN 2G","type":"PAYLOAD","l1":"1 40367U 14090A   26204.98848352 -.00000303  00000-0  00000-0 0  9992","l2":"2 40367   5.7295  72.3670 0003684 170.5047 154.2567  1.00278122 42368"},{"id":"40732","name":"METEOSAT 11 (MSG 4)","type":"PAYLOAD","l1":"1 40732U 15034A   26205.25569791  .00000064  00000-0  00000-0 0  9998","l2":"2 40732   3.2910  70.8675 0001946 355.6631 336.7950  1.00274689  7585"},{"id":"41105","name":"ELEKTRO-L 2","type":"PAYLOAD","l1":"1 41105U 15074A   26204.96586341 -.00000118  00000-0  00000-0 0  9995","l2":"2 41105   6.7841  70.0677 0000601 231.2818 333.5735  1.00272751 38878"},{"id":"41335","name":"SENTINEL 3A","type":"PAYLOAD","l1":"1 41335U 16011A   26205.31524340  .00000069  00000-0  46650-4 0  9992","l2":"2 41335  98.6230 272.1618 0001284  86.8884 273.2443 14.26736261543353"},{"id":"41752","name":"INSAT 3DR","type":"PAYLOAD","l1":"1 41752U 16054A   26205.11433727 -.00000072  00000-0  00000-0 0  9998","l2":"2 41752   0.0913  88.8832 0010237 180.2139 147.8823  1.00271852 36185"},{"id":"41836","name":"HIMAWARI 9","type":"PAYLOAD","l1":"1 41836U 16064A   26205.28178469  .00000000  00000-0  00000-0 0  9999","l2":"2 41836   0.0186  59.5720 0002524 122.4362   2.1919  1.00270957 35584"},{"id":"41866","name":"GOES 16","type":"PAYLOAD","l1":"1 41866U 16071A   26205.28440193 -.00000086  00000-0  00000-0 0  9991","l2":"2 41866   0.4259  85.4076 0000780  70.3604 143.9193  1.00271964 35471"},{"id":"41882","name":"FENGYUN 4A","type":"PAYLOAD","l1":"1 41882U 16077A   26205.27831801 -.00000355  00000-0  00000-0 0  9993","l2":"2 41882   2.4142  79.8574 0007994 158.4685 287.4412  1.00264408 35308"},{"id":"41884","name":"CYGFM05","type":"PAYLOAD","l1":"1 41884U 16078A   26204.84394744  .00023937  00000-0  30627-3 0  9999","l2":"2 41884  34.9578  17.5661 0005331 133.1527 226.9644 15.58196380534475"},{"id":"41885","name":"CYGFM04","type":"PAYLOAD","l1":"1 41885U 16078B   26204.75882749  .00034000  00000-0  35343-3 0  9990","l2":"2 41885  34.9334 343.8944 0004510 181.9711 178.0998 15.63529208534721"},{"id":"41886","name":"CYGFM02","type":"PAYLOAD","l1":"1 41886U 16078C   26204.74895777  .00040786  00000-0  36997-3 0  9999","l2":"2 41886  34.9412 337.3590 0005224 182.6208 177.4493 15.66900011534907"},{"id":"41887","name":"CYGFM01","type":"PAYLOAD","l1":"1 41887U 16078D   26204.81604114  .00025008  00000-0  31115-3 0  9998","l2":"2 41887  34.9408  18.5011 0005130 125.7038 234.4165 15.58927621534428"},{"id":"41888","name":"CYGFM08","type":"PAYLOAD","l1":"1 41888U 16078E   26204.77354177  .00030945  00000-0  34329-3 0  9991","l2":"2 41888  34.9441 357.3501 0006206 162.7896 197.3041 15.61872708534690"},{"id":"41890","name":"CYGFM07","type":"PAYLOAD","l1":"1 41890U 16078G   26204.73026109  .00030685  00000-0  33913-3 0  9990","l2":"2 41890  34.9456 345.9476 0004992 180.3058 179.7665 15.61979453534713"},{"id":"41891","name":"CYGFM03","type":"PAYLOAD","l1":"1 41891U 16078H   26204.76545689  .00031282  00000-0  34590-3 0  9999","l2":"2 41891  34.9412 347.6403 0004517 164.3433 195.7433 15.61966740534690"}]}