OBJECT_NAME,OBJECT_ID,EPOCH,MEAN_MOTION,ECCENTRICITY,INCLINATION,RA_OF_ASC_NODE,ARG_OF_PERICENTER,MEAN_ANOMALY,EPHEMERIS_TYPE,CLASSIFICATION_TYPE,NORAD_CAT_ID,ELEMENT_SET_NO,REV_AT_EPOCH,BSTAR,MEAN_MOTION_DOT,MEAN_MOTION_DDOT
DMSP 5D-3 F16 (USA 172),2003-048A,2026-07-24T07:13:30.662112,14.14485061,.0007874,98.9888,229.3735,48.6838,11.4348,0,U,28054,999,17473,.22224348E-4,-.3E-7,0
METEOSAT-9 (MSG-2),2005-049B,2026-07-24T03:07:38.851392,1.00277159,.00024865,9.4424,53.7968,1.9946,338.7144,0,U,28912,999,736,0,.121E-5,0
DMSP 5D-3 F17 (USA 191),2006-050A,2026-07-24T07:02:00.601728,14.14996974,.00092417,98.7393,211.1059,315.3298,44.7131,0,U,29522,999,1767,.50283396E-4,.54E-6,0
FENGYUN 3A,2008-026A,2026-07-24T06:18:02.914272,14.19578064,.00092774,98.6887,145.4036,27.9145,332.2527,0,U,32958,999,94066,.4851491E-4,.59E-6,0
EWS-G3 (GOES 14),2009-033A,2026-07-24T06:39:39.284064,1.00094104,.0002282,1.7824,82.5821,40.1942,38.4642,0,U,35491,999,696,0,-.354E-5,0
DMSP 5D-3 F18 (USA 210),2009-057A,2026-07-24T06:24:05.415840,14.14916225,.0011726,98.9065,185.9603,140.7618,219.4407,0,U,35951,999,86483,.15112756E-3,.248E-5,0
EWS-G2 (GOES 15),2010-008A,2026-07-24T04:42:38.627424,1.00272507,.00056766,1.3769,82.3590,52.9072,300.5568,0,U,36411,999,6000,0,.26E-6,0
COMS 1,2010-032A,2026-07-24T07:10:01.854912,0.99165725,.00115385,4.8975,74.9072,15.5646,244.9016,0,U,36744,999,5145,0,-.117E-5,0
FENGYUN 3B,2010-059A,2026-07-24T07:16:54.054624,14.14847711,.00232272,98.9605,251.4712,82.1596,49.5765,0,U,37214,999,81267,.2106439E-4,-.4E-7,0
SUOMI NPP,2011-061A,2026-07-24T06:36:13.345344,14.19524096,.00012291,98.7956,145.8994,177.7147,182.4034,0,U,37849,999,76370,.43603638E-4,.48E-6,0
METEOSAT-10 (MSG-3),2012-035B,2026-07-24T06:05:35.049696,1.00273570,.00015102,4.7567,60.8330,21.6263,310.9704,0,U,38552,999,5122,0,-.5E-7,0
METOP-B,2012-049A,2026-07-24T06:51:13.451904,14.21448305,.00014781,98.6484,256.0405,210.5600,149.5492,0,U,38771,999,71853,.56747393E-4,.81E-6,0
INSAT-3D,2013-038B,2026-07-24T06:42:31.507776,1.00272277,.00011866,2.0188,82.0722,44.7701,45.2994,0,U,39216,999,4745,0,-.336E-5,0
FENGYUN 3C,2013-052A,2026-07-24T06:55:39.469728,14.15762432,.00134334,98.5015,177.4653,277.5978,82.3671,0,U,39260,999,66381,.58241497E-4,.73E-6,0
METEOR-M 2,2014-037A,2026-07-24T07:28:25.123296,14.21472194,.00046661,98.5142,179.7400,295.9919,64.0778,0,U,40069,999,62459,.14422299E-3,.273E-5,0
HIMAWARI-8,2014-060A,2026-07-24T06:45:38.708928,1.00270360,.00014273,0.0359,275.9362,240.8296,27.2876,0,U,40267,999,4313,0,-.271E-5,0
FENGYUN 2G,2014-090A,2026-07-23T23:43:24.976128,1.00278122,.00036844,5.7295,72.3670,170.5047,154.2567,0,U,40367,999,4236,0,-.303E-5,0
METEOSAT-11 (MSG-4),2015-034A,2026-07-24T06:08:12.299424,1.00274689,.00019459,3.2910,70.8675,355.6631,336.7950,0,U,40732,999,758,0,.64E-6,0
ELEKTRO-L 2,2015-074A,2026-07-23T23:10:50.598624,1.00272751,.00006009,6.7841,70.0677,231.2818,333.5735,0,U,41105,999,3887,0,-.118E-5,0
SENTINEL-3A,2016-011A,2026-07-24T07:33:57.029760,14.26736261,.00012837,98.6230,272.1618,86.8884,273.2443,0,U,41335,999,54335,.46649779E-4,.69E-6,0
INSAT-3DR,2016-054A,2026-07-24T02:44:38.740128,1.00271852,.00102373,0.0913,88.8832,180.2139,147.8823,0,U,41752,999,3618,0,-.72E-6,0
HIMAWARI-9,2016-064A,2026-07-24T06:45:46.197216,1.00270957,.00025235,0.0186,59.5720,122.4362,2.1919,0,U,41836,999,3558,0,0,0
GOES 16,2016-071A,2026-07-24T06:49:32.326752,1.00271964,.00007801,0.4259,85.4076,70.3604,143.9193,0,U,41866,999,3547,0,-.86E-6,0
FENGYUN 4A,2016-077A,2026-07-24T06:40:46.676064,1.00264408,.00079937,2.4142,79.8574,158.4685,287.4412,0,U,41882,999,3530,0,-.355E-5,0
CYGFM05,2016-078A,2026-07-23T20:15:17.058816,15.58196380,.00053314,34.9578,17.5661,133.1527,226.9644,0,U,41884,999,53447,.30627481E-3,.23937E-3,0
CYGFM04,2016-078B,2026-07-23T18:12:42.695136,15.63529208,.00045095,34.9334,343.8944,181.9711,178.0998,0,U,41885,999,53472,.3534252E-3,.34E-3,0
CYGFM02,2016-078C,2026-07-23T17:58:29.951328,15.66900011,.00052236,34.9412,337.3590,182.6208,177.4493,0,U,41886,999,53490,.36996996E-3,.40786E-3,0
CYGFM01,2016-078D,2026-07-23T19:35:05.954496,15.58927621,.00051302,34.9408,18.5011,125.7038,234.4165,0,U,41887,999,53442,.31115488E-3,.25008E-3,0
CYGFM08,2016-078E,2026-07-23T18:33:54.008928,15.61872708,.00062061,34.9441,357.3501,162.7896,197.3041,0,U,41888,999,53469,.34328929E-3,.30945E-3,0
CYGFM07,2016-078G,2026-07-23T17:31:34.558176,15.61979453,.00049916,34.9456,345.9476,180.3058,179.7665,0,U,41890,999,53471,.33912572E-3,.30685E-3,0
CYGFM03,2016-078H,2026-07-23T18:22:15.475296,15.61966740,.00045172,34.9412,347.6403,164.3433,195.7433,0,U,41891,999,53469,.34589771E-3,.31282E-3,0
